{
    "links": {
        "self": "http://www.neowsapp.com/rest/v1/neo/3799762?api_key=iIulBulltgU6a56xZRHN4H3l9WmuAYTsLGpBGhQ2"
    },
    "id": "3799762",
    "neo_reference_id": "3799762",
    "name": "(2018 DZ3)",
    "designation": "2018 DZ3",
    "nasa_jpl_url": "http://ssd.jpl.nasa.gov/sbdb.cgi?sstr=3799762",
    "absolute_magnitude_h": 26.4,
    "estimated_diameter": {
        "kilometers": {
            "estimated_diameter_min": 0.0139493823,
            "estimated_diameter_max": 0.0311917671
        },
        "meters": {
            "estimated_diameter_min": 13.9493822934,
            "estimated_diameter_max": 31.1917670523
        },
        "miles": {
            "estimated_diameter_min": 0.0086677416,
            "estimated_diameter_max": 0.0193816595
        },
        "feet": {
            "estimated_diameter_min": 45.7656914036,
            "estimated_diameter_max": 102.3351970157
        }
    },
    "is_potentially_hazardous_asteroid": false,
    "close_approach_data": [
        {
            "close_approach_date": "2010-07-23",
            "close_approach_date_full": "2010-Jul-23 03:54",
            "epoch_date_close_approach": 1279857240000,
            "relative_velocity": {
                "kilometers_per_second": "2.5798581792",
                "kilometers_per_hour": "9287.4894451468",
                "miles_per_hour": "5770.8847610691"
            },
            "miss_distance": {
                "astronomical": "1.9608303558",
                "lunar": "762.7630084062",
                "kilometers": "293336044.659022146",
                "miles": "182270566.1526557748"
            },
            "orbiting_body": "Juptr"
        },
        {
            "close_approach_date": "2012-02-24",
            "close_approach_date_full": "2012-Feb-24 00:27",
            "epoch_date_close_approach": 1330043220000,
            "relative_velocity": {
                "kilometers_per_second": "11.4550683033",
                "kilometers_per_hour": "41238.2458918508",
                "miles_per_hour": "25623.8422876337"
            },
            "miss_distance": {
                "astronomical": "0.0865383375",
                "lunar": "33.6634132875",
                "kilometers": "12945950.963341125",
                "miles": "8044240.912212525"
            },
            "orbiting_body": "Earth"
        },
        {
            "close_approach_date": "2018-03-03",
            "close_approach_date_full": "2018-Mar-03 21:30",
            "epoch_date_close_approach": 1520112600000,
            "relative_velocity": {
                "kilometers_per_second": "9.7075494834",
                "kilometers_per_hour": "34947.1781401528",
                "miles_per_hour": "21714.8174393633"
            },
            "miss_distance": {
                "astronomical": "0.0270096521",
                "lunar": "10.5067546669",
                "kilometers": "4040586.423601027",
                "miles": "2510703.9807350926"
            },
            "orbiting_body": "Earth"
        }
    ],
    "orbital_data": {
        "orbit_id": "1",
        "orbit_determination_date": "2018-03-04 10:12:07",
        "first_observation_date": "2018-02-26",
        "last_observation_date": "2018-03-01",
        "data_arc_in_days": 3,
        "observations_used": 18,
        "orbit_uncertainty": "8",
        "minimum_orbit_intersection": ".00773412",
        "jupiter_tisserand_invariant": "3.566",
        "epoch_osculation": "2458176.5",
        "eccentricity": ".5332141522203021",
        "semi_major_axis": "2.080120538762193",
        "inclination": "5.505815993440203",
        "ascending_node_longitude": "344.6756901359743",
        "orbital_period": "1095.799707398917",
        "perihelion_distance": ".970970829170072",
        "perihelion_argument": "206.2517725996726",
        "aphelion_distance": "3.189270248354314",
        "perihelion_time": "2458202.887923716626",
        "mean_anomaly": "351.3308495395253",
        "mean_motion": ".3285271912095381",
        "equinox": "J2000",
        "orbit_class": {
            "orbit_class_type": "APO",
            "orbit_class_description": "Near-Earth asteroid orbits which cross the Earth’s orbit similar to that of 1862 Apollo",
            "orbit_class_range": "a (semi-major axis) > 1.0 AU; q (perihelion) < 1.017 AU"
        }
    },
    "is_sentry_object": false
}